[{"OBJECT_NAME":"STARLINK-6041","OBJECT_ID":"2023-064AG","EPOCH":"2026-03-09T12:25:52.700448","MEAN_MOTION":14.98304487,"ECCENTRICITY":0.00030426,"INCLINATION":69.9997,"RA_OF_ASC_NODE":124.8907,"ARG_OF_PERICENTER":271.043,"MEAN_ANOMALY":89.038,"EPHEMERIS_TYPE":0,"CLASSIFICATION_TYPE":"U","NORAD_CAT_ID":56478,"ELEMENT_SET_NO":999,"REV_AT_EPOCH":15571,"BSTAR":0.00041651172,"MEAN_MOTION_DOT":4.877e-5,"MEAN_MOTION_DDOT":0},{"OBJECT_NAME":"SL-8 DEB","OBJECT_ID":"1972-043D","EPOCH":"2026-03-09T22:05:55.512096","MEAN_MOTION":15.0117212,"ECCENTRICITY":0.00057803,"INCLINATION":74.0604,"RA_OF_ASC_NODE":30.4168,"ARG_OF_PERICENTER":131.677,"MEAN_ANOMALY":228.4914,"EPHEMERIS_TYPE":0,"CLASSIFICATION_TYPE":"U","NORAD_CAT_ID":6065,"ELEMENT_SET_NO":999,"REV_AT_EPOCH":84295,"BSTAR":0.0010977341,"MEAN_MOTION_DOT":0.00014073,"MEAN_MOTION_DDOT":0}]
